ORBCOMM FM24            
1 25478U 98053D   25144.33940929  .00000822  00000+0  31566-3 0  9991
2 25478  45.0094  22.1643 0002275  86.5173 273.5935 14.38048234394012
ORBCOMM FM25            
1 25479U 98053E   25144.79664517  .00000843  00000+0  32247-3 0  9998
2 25479  45.0085  18.2641 0004327 116.0159 244.1135 14.38024497394370
ORBCOMM FM26            
1 25480U 98053F   25144.37579535  .00000750  00000+0  29775-3 0  9998
2 25480  45.0080  16.5470 0005814 136.8653 223.2651 14.37093918394227
ORBCOMM FM27            
1 25481U 98053G   25144.36798583  .00000969  00000+0  36378-3 0  9993
2 25481  45.0067  20.5083 0000986  61.1438 298.9509 14.38050630394242
ORBCOMM FM28            
1 25482U 98053H   25144.82557885  .00000757  00000+0  29306-3 0  9991
2 25482  45.0065 315.8741 0005231 177.3422 182.7455 14.38248126395164
ORBCOMM FM30            
1 25980U 99065A   25144.43795523  .00000621  00000+0  25373-3 0  9998
2 25980  45.0301 202.1250 0008649 250.3491 109.6424 14.37258553331031
ORBCOMM FM31            
1 25981U 99065B   25144.54925174  .00000398  00000+0  17965-3 0  9997
2 25981  45.0215 195.0931 0006040 268.7605  91.2551 14.37197600330609
ORBCOMM FM32            
1 25982U 99065C   25144.58000645  .00000579  00000+0  24465-3 0  9993
2 25982  45.0145 211.3669 0008133 264.9357  95.0563 14.36242142331202
